[{"OBJECT_NAME":"STARLINK-3459","OBJECT_ID":"2022-016AV","EPOCH":"2026-03-09T22:13:54.539616","MEAN_MOTION":15.08836822,"ECCENTRICITY":0.00012682,"INCLINATION":53.2177,"RA_OF_ASC_NODE":308.071,"ARG_OF_PERICENTER":84.3561,"MEAN_ANOMALY":275.7576,"EPHEMERIS_TYPE":0,"CLASSIFICATION_TYPE":"U","NORAD_CAT_ID":51757,"ELEMENT_SET_NO":999,"REV_AT_EPOCH":22374,"BSTAR":7.9981942e-5,"MEAN_MOTION_DOT":9.85e-6,"MEAN_MOTION_DDOT":0},{"OBJECT_NAME":"RAPIDEYE 3","OBJECT_ID":"2008-040D","EPOCH":"2026-03-09T19:34:21.496512","MEAN_MOTION":15.06489596,"ECCENTRICITY":0.00114187,"INCLINATION":97.3959,"RA_OF_ASC_NODE":102.9968,"ARG_OF_PERICENTER":27.1842,"MEAN_ANOMALY":332.9981,"EPHEMERIS_TYPE":0,"CLASSIFICATION_TYPE":"U","NORAD_CAT_ID":33315,"ELEMENT_SET_NO":999,"REV_AT_EPOCH":95131,"BSTAR":0.00019030529,"MEAN_MOTION_DOT":2.754e-5,"MEAN_MOTION_DDOT":0}]
